$$SOE
2460154.500000000, A.D. 2023-Jul-29 00:00:00.0000, -1.702953650966313E+08, -2.490596132105556E+08, -7.875211015143593E+07,
2460161.500000000, A.D. 2023-Aug-05 00:00:00.0000, -1.603403824868067E+08, -2.553136012424256E+08, -7.649614695682245E+07,
2460168.500000000, A.D. 2023-Aug-12 00:00:00.0000, -1.501268285872456E+08, -2.611557434004580E+08, -7.411679076797941E+07,
2460175.500000000, A.D. 2023-Aug-19 00:00:00.0000, -1.396692476036785E+08, -2.665732516293711E+08, -7.161692490610349E+07,
2460182.500000000, A.D. 2023-Aug-26 00:00:00.0000, -1.289827369915064E+08, -2.715536743335937E+08, -6.899963532018642E+07,
2460189.500000000, A.D. 2023-Sep-02 00:00:00.0000, -1.180829563179944E+08, -2.760849198656125E+08, -6.626821587064885E+07,
2460196.500000000, A.D. 2023-Sep-09 00:00:00.0000, -1.069861357173510E+08, -2.801552822540959E+08, -6.342617374775067E+07,
2460203.500000000, A.D. 2023-Sep-16 00:00:00.0000, -9.570908360380805E+07, -2.837534693288742E+08, -6.047723500618464E+07,
2460210.500000000, A.D. 2023-Sep-23 00:00:00.0000, -8.426919304196852E+07, -2.868686330498248E+08, -5.742535018565597E+07,
2460217.500000000, A.D. 2023-Sep-30 00:00:00.0000, -7.268444691116740E+07, -2.894904009357437E+08, -5.427469983764698E+07,
2460224.500000000, A.D. 2023-Oct-07 00:00:00.0000, -6.097342399440898E+07, -2.916089092121149E+08, -5.102969972831947E+07,
2460231.500000000, A.D. 2023-Oct-14 00:00:00.0000, -4.915530470647445E+07, -2.932148410565428E+08, -4.769500601857573E+07,
2460238.500000000, A.D. 2023-Oct-21 00:00:00.0000, -3.724987296701900E+07, -2.942994683960091E+08, -4.427552051510328E+07,
2460245.500000000, A.D. 2023-Oct-28 00:00:00.0000, -2.527751535802767E+07, -2.948546950366874E+08, -4.077639559705043E+07,
2460252.500000000, A.D. 2023-Nov-04 00:00:00.0000, -1.325921850845501E+07, -2.948731019147539E+08, -3.720303867665836E+07,
2460259.500000000, A.D. 2023-Nov-11 00:00:00.0000, -1.216564199008823E+06, -2.943479950606988E+08, -3.356111615931261E+07,
2460266.500000000, A.D. 2023-Nov-18 00:00:00.0000, 1.082827838296578E+07, -2.932734563034074E+08, -2.985655681830648E+07,
2460273.500000000, A.D. 2023-Nov-25 00:00:00.0000, 2.285256368395716E+07, -2.916443966164668E+08, -2.609555446897990E+07,
2460280.500000000, A.D. 2023-Dec-02 00:00:00.0000, 3.483298454397976E+07, -2.894566120046237E+08, -2.228456981672619E+07,
2460287.500000000, A.D. 2023-Dec-09 00:00:00.0000, 4.674569116687135E+07, -2.867068418376569E+08, -1.843033135289304E+07,
2460294.500000000, A.D. 2023-Dec-16 00:00:00.0000, 5.856631501275303E+07, -2.833928294204721E+08, -1.453983517547815E+07,
2460301.500000000, A.D. 2023-Dec-23 00:00:00.0000, 7.026999839277409E+07, -2.795133838548978E+08, -1.062034355150114E+07,
2460308.500000000, A.D. 2023-Dec-30 00:00:00.0000, 8.183142886219130E+07, -2.750684418210088E+08, -6.679381844770998E+06,
2460315.500000000, A.D. 2024-Jan-06 00:00:00.0000, 9.322487707454956E+07, -2.700591312430704E+08, -2.724733665187880E+06,
2460322.500000000, A.D. 2024-Jan-13 00:00:00.0000, 1.044242416985358E+08, -2.644878381775723E+08, 1.235565500370204E+06,
2460329.500000000, A.D. 2024-Jan-20 00:00:00.0000, 1.154031030329398E+08, -2.583582732970844E+08, 5.193236497225061E+06,
2460336.500000000, A.D. 2024-Jan-27 00:00:00.0000, 1.261347836720628E+08, -2.516755366949336E+08, 9.139766974633515E+06,
2460343.500000000, A.D. 2024-Feb-03 00:00:00.0000, 1.365924161326499E+08, -2.444461812482967E+08, 1.306642426272534E+07,
2460350.500000000, A.D. 2024-Feb-10 00:00:00.0000, 1.467490180057620E+08, -2.366782740316493E+08, 1.696427078017586E+07,
2460357.500000000, A.D. 2024-Feb-17 00:00:00.0000, 1.565775749900690E+08, -2.283814548873268E+08, 2.082418212517904E+07,
2460364.500000000, A.D. 2024-Feb-24 00:00:00.0000, 1.660511319744737E+08, -2.195669911692186E+08, 2.463686799716932E+07,
2460371.500000000, A.D. 2024-Mar-02 00:00:00.0000, 1.751428922285075E+08, -2.102478276415144E+08, 2.839289607203900E+07,
2460378.500000000, A.D. 2024-Mar-09 00:00:00.0000, 1.838263247533736E+08, -2.004386304727640E+08, 3.208271891470934E+07,
2460385.500000000, A.D. 2024-Mar-16 00:00:00.0000, 1.920752799705436E+08, -1.901558239556653E+08, 3.569670398187929E+07,
2460392.500000000, A.D. 2024-Mar-23 00:00:00.0000, 1.998641132605719E+08, -1.794176176374653E+08, 3.922516684946667E+07,
2460399.500000000, A.D. 2024-Mar-30 00:00:00.0000, 2.071678135380980E+08, -1.682440226465223E+08, 4.265840784424469E+07,
2460406.500000000, A.D. 2024-Apr-06 00:00:00.0000, 2.139621363641664E+08, -1.566568593142156E+08, 4.598675168638050E+07,
2460413.500000000, A.D. 2024-Apr-13 00:00:00.0000, 2.202237442328471E+08, -1.446797540053282E+08, 4.920058972900252E+07,
2460420.500000000, A.D. 2024-Apr-20 00:00:00.0000, 2.259303520020658E+08, -1.323381213115914E+08, 5.229042489724374E+07,
2460427.500000000, A.D. 2024-Apr-27 00:00:00.0000, 2.310608746767321E+08, -1.196591311212538E+08, 5.524691916446170E+07,
2460434.500000000, A.D. 2024-May-04 00:00:00.0000, 2.355955761449894E+08, -1.066716603567017E+08, 5.806094317483544E+07,
2460441.500000000, A.D. 2024-May-11 00:00:00.0000, 2.395162174234319E+08, -9.340622873044077E+07, 6.072362757679000E+07,
2460448.500000000, A.D. 2024-May-18 00:00:00.0000, 2.428062026468059E+08, -7.989491794281335E+07, 6.322641557830951E+07,
2460455.500000000, A.D. 2024-May-25 00:00:00.0000, 2.454507208496714E+08, -6.617127401268445E+07, 6.556111616885329E+07,
2460462.500000000, A.D. 2024-Jun-01 00:00:00.0000, 2.474368815251419E+08, -5.227019276175170E+07, 6.771995738454977E+07,
2460469.500000000, A.D. 2024-Jun-08 00:00:00.0000, 2.487538420689706E+08, -3.822778874742509E+07, 6.969563892352226E+07,
2460476.500000000, A.D. 2024-Jun-15 00:00:00.0000, 2.493929253534075E+08, -2.408124769069891E+07, 7.148138340526977E+07,
2460483.500000000, A.D. 2024-Jun-22 00:00:00.0000, 2.493477243258301E+08, -9.868662149509858E+06, 7.307098573297524E+07,
2460490.500000000, A.D. 2024-Jun-29 00:00:00.0000, 2.486141895196736E+08, 4.371146453210466E+06, 7.445885987527014E+07,
2460497.500000000, A.D. 2024-Jul-06 00:00:00.0000, 2.471907002684295E+08, 1.859881534456053E+07, 7.564008188798416E+07,
2460504.500000000, A.D. 2024-Jul-13 00:00:00.0000, 2.450781199216741E+08, 3.277463835020810E+07, 7.661042851420496E+07,
2460511.500000000, A.D. 2024-Jul-20 00:00:00.0000, 2.422798317026330E+08, 4.685877320910005E+07, 7.736641097868009E+07,
2460518.500000000, A.D. 2024-Jul-27 00:00:00.0000, 2.388017534947841E+08, 6.081145483344674E+07, 7.790530336713055E+07,
2460525.500000000, A.D. 2024-Aug-03 00:00:00.0000, 2.346523311278294E+08, 7.459321148839474E+07, 7.822516502716732E+07,
2460532.500000000, A.D. 2024-Aug-10 00:00:00.0000, 2.298425100103562E+08, 8.816508111058903E+07, 7.832485656729230E+07,
2460539.500000000, A.D. 2024-Aug-17 00:00:00.0000, 2.243856852408822E+08, 1.014888249538977E+08, 7.820404915674385E+07,
2460546.500000000, A.D. 2024-Aug-24 00:00:00.0000, 2.182976307176237E+08, 1.145271357218121E+08, 7.786322695047082E+07,
2460553.500000000, A.D. 2024-Aug-31 00:00:00.0000, 2.115964082558841E+08, 1.272438373953713E+08, 7.730368258234595E+07,
2460560.500000000, A.D. 2024-Sep-07 00:00:00.0000, 2.043022583540216E+08, 1.396040743100200E+08, 7.652750579417372E+07,
2460567.500000000, A.D. 2024-Sep-14 00:00:00.0000, 1.964374743100154E+08, 1.515744881159204E+08, 7.553756548490855E+07,
2460574.500000000, A.D. 2024-Sep-21 00:00:00.0000, 1.880262595506220E+08, 1.631233809541588E+08, 7.433748572090973E+07,
2460581.500000000, A.D. 2024-Sep-28 00:00:00.0000, 1.790945698338358E+08, 1.742208598940412E+08, 7.293161594149807E+07,
2460588.500000000, A.D. 2024-Oct-05 00:00:00.0000, 1.696699463532691E+08, 1.848389612492774E+08, 7.132499557392588E+07,
2460595.500000000, A.D. 2024-Oct-12 00:00:00.0000, 1.597813418349490E+08, 1.949517567360728E+08, 6.952331394276041E+07,
2460602.500000000, A.D. 2024-Oct-19 00:00:00.0000, 1.494589403713486E+08, 2.045354405869733E+08, 6.753286628444698E+07,
2460609.500000000, A.D. 2024-Oct-26 00:00:00.0000, 1.387339734518891E+08, 2.135683965934750E+08, 6.536050652236570E+07,
2460616.500000000, A.D. 2024-Nov-02 00:00:00.0000, 1.276385348703106E+08, 2.220312450726345E+08, 6.301359750546269E+07,
2460623.500000000, A.D. 2024-Nov-09 00:00:00.0000, 1.162053969052175E+08, 2.299068702650117E+08, 6.049995944351350E+07,
2460630.500000000, A.D. 2024-Nov-16 00:00:00.0000, 1.044678299313929E+08, 2.371804289585763E+08, 5.782781726038320E+07,
2460637.500000000, A.D. 2024-Nov-23 00:00:00.0000, 9.245942743648490E+07, 2.438393413477507E+08, 5.500574754711494E+07,
2460644.500000000, A.D. 2024-Nov-30 00:00:00.0000, 8.021393834652354E+07, 2.498732653609481E+08, 5.204262573391527E+07,
2460651.500000000, A.D. 2024-Dec-07 00:00:00.0000, 6.776510852200833E+07, 2.552740563230835E+08, 4.894757405931465E+07,
2460658.500000000, A.D. 2024-Dec-14 00:00:00.0000, 5.514653191920731E+07, 2.600357147435018E+08, 4.572991101562724E+07,
2460665.500000000, A.D. 2024-Dec-21 00:00:00.0000, 4.239151000991192E+07, 2.641543226052763E+08, 4.239910282357396E+07,
2460672.500000000, A.D. 2024-Dec-28 00:00:00.0000, 2.953292205256610E+07, 2.676279668483037E+08, 3.896471689847672E+07,
2460679.500000000, A.D. 2025-Jan-04 00:00:00.0000, 1.660310921457723E+07, 2.704566541351852E+08, 3.543637760337134E+07,
2460686.500000000, A.D. 2025-Jan-11 00:00:00.0000, 3.633770935627749E+06, 2.726422202223217E+08, 3.182372485468854E+07,
2460693.500000000, A.D. 2025-Jan-18 00:00:00.0000, -9.344127373779474E+06, 2.741882346013120E+08, 2.813637577671473E+07,
2460700.500000000, A.D. 2025-Jan-25 00:00:00.0000, -2.230043520921669E+07, 2.750999014262649E+08, 2.438388945843866E+07,
2460707.500000000, A.D. 2025-Feb-01 00:00:00.0000, -3.520588653428192E+07, 2.753839580557569E+08, 2.057573483888920E+07,
2460714.500000000, A.D. 2025-Feb-08 00:00:00.0000, -4.803215840685528E+07, 2.750485724382231E+08, 1.672126170958175E+07,
2460721.500000000, A.D. 2025-Feb-15 00:00:00.0000, -6.075191920817709E+07, 2.741032403960041E+08, 1.282967478819183E+07,
$$EOE